{"type": "FeatureCollection", "features": [ {"type": "Feature", "properties": {"norad_id": 31268, "name": "FENGYUN 1C DEB", "group": "fengyun-1c-debris", "lat": 9.422090458107391, "lon": -136.57261956798587, "alt_km": 840.4671384011945, "timestamp": "2025-12-26T04:40:06.068074+00:00", "meta": {"OBJECT_NAME": "FENGYUN 1C DEB", "OBJECT_ID": "1999-025BNA", "EPOCH": "2025-12-13T20:28:59.966112", "MEAN_MOTION": 14.06415523, "ECCENTRICITY": 0.00495712, "INCLINATION": 98.7556, "RA_OF_ASC_NODE": 30.024, "ARG_OF_PERICENTER": 180.2607, "MEAN_ANOMALY": 179.8544, "EPHEMERIS_TYPE": 0, "CLASSIFICATION_TYPE": "U", "NORAD_CAT_ID": 31268, "ELEMENT_SET_NO": 999, "REV_AT_EPOCH": 62048, "BSTAR": 0.00090714334, "MEAN_MOTION_DOT": 1.473e-05, "MEAN_MOTION_DDOT": 0}, "tle": {"line1": "1 31268U 99025BNA 25347.85347183  .00001473  00000+0  90714-3 0  9993", "line2": "2 31268  98.7556  30.0240 0049571 180.2607 179.8544 14.06415523620480"}}, "geometry": {"type": "Point", "coordinates": [-136.57261956798587, 9.422090458107391]}}, {"type": "Feature", "properties": {"norad_id": 31269, "name": "FENGYUN 1C DEB", "group": "fengyun-1c-debris", "lat": -68.34489336898417, "lon": -100.9949581274855, "alt_km": 654.1650000892605, "timestamp": "2025-12-26T04:40:06.068084+00:00", "meta": {"OBJECT_NAME": "FENGYUN 1C DEB", "OBJECT_ID": "1999-025BNB", "EPOCH": "2025-12-25T15:48:26.870112", "MEAN_MOTION": 14.43920784, "ECCENTRICITY": 0.0239166, "INCLINATION": 98.1801, "RA_OF_ASC_NODE": 237.2488, "ARG_OF_PERICENTER": 236.0377, "MEAN_ANOMALY": 147.9889, "EPHEMERIS_TYPE": 0, "CLASSIFICATION_TYPE": "U", "NORAD_CAT_ID": 31269, "ELEMENT_SET_NO": 999, "REV_AT_EPOCH": 96673, "BSTAR": 0.0018394, "MEAN_MOTION_DOT": 8.859e-05, "MEAN_MOTION_DDOT": 0}, "tle": {"line1": "1 31269U 99025BNB 25359.65864433  .00008859  00000+0  18394-2 0  9995", "line2": "2 31269  98.1801 237.2488 0239166 236.0377 147.9889 14.43920784966738"}}, "geometry": {"type": "Point", "coordinates": [-100.9949581274855, -68.34489336898417]}}, {"type": "Feature", "properties": {"norad_id": 31272, "name": "FENGYUN 1C DEB", "group": "fengyun-1c-debris", "lat": 22.6366846147156, "lon": 56.26059826065304, "alt_km": 803.9832299470245, "timestamp": "2025-12-26T04:40:06.068094+00:00", "meta": {"OBJECT_NAME": "FENGYUN 1C DEB", "OBJECT_ID": "1999-025BNE", "EPOCH": "2025-12-24T21:34:04.725984", "MEAN_MOTION": 14.22946532, "ECCENTRICITY": 0.0107048, "INCLINATION": 99.0914, "RA_OF_ASC_NODE": 231.0946, "ARG_OF_PERICENTER": 78.2543, "MEAN_ANOMALY": 283.0621, "EPHEMERIS_TYPE": 0, "CLASSIFICATION_TYPE": "U", "NORAD_CAT_ID": 31272, "ELEMENT_SET_NO": 999, "REV_AT_EPOCH": 97162, "BSTAR": 0.00047899, "MEAN_MOTION_DOT": 1.097e-05, "MEAN_MOTION_DDOT": 0}, "tle": {"line1": "1 31272U 99025BNE 25358.89866581  .00001097  00000+0  47899-3 0  9990", "line2": "2 31272  99.0914 231.0946 0107048  78.2543 283.0621 14.22946532971628"}}, "geometry": {"type": "Point", "coordinates": [56.26059826065304, 22.6366846147156]}}, {"type": "Feature", "properties": {"norad_id": 31274, "name": "FENGYUN 1C DEB", "group": "fengyun-1c-debris", "lat": -22.100501866025954, "lon": -177.25806685196002, "alt_km": 962.920086373696, "timestamp": "2025-12-26T04:40:06.068104+00:00", "meta": {"OBJECT_NAME": "FENGYUN 1C DEB", "OBJECT_ID": "1999-025BNG", "EPOCH": "2025-12-20T18:48:10.459296", "MEAN_MOTION": 13.8564505, "ECCENTRICITY": 0.0237962, "INCLINATION": 99.0043, "RA_OF_ASC_NODE": 173.8465, "ARG_OF_PERICENTER": 88.2094, "MEAN_ANOMALY": 274.6299, "EPHEMERIS_TYPE": 0, "CLASSIFICATION_TYPE": "U", "NORAD_CAT_ID": 31274, "ELEMENT_SET_NO": 999, "REV_AT_EPOCH": 94318, "BSTAR": 0.00061688976, "MEAN_MOTION_DOT": 8.4e-06, "MEAN_MOTION_DDOT": 0}, "tle": {"line1": "1 31274U 99025BNG 25354.78345439  .00000840  00000+0  61689-3 0  9998", "line2": "2 31274  99.0043 173.8465 0237962  88.2094 274.6299 13.85645050943189"}}, "geometry": {"type": "Point", "coordinates": [-177.25806685196002, -22.100501866025954]}}, {"type": "Feature", "properties": {"norad_id": 31275, "name": "FENGYUN 1C DEB", "group": "fengyun-1c-debris", "lat": -76.95110168645645, "lon": -179.52004480732538, "alt_km": 849.0539428426682, "timestamp": "2025-12-26T04:40:06.068114+00:00", "meta": {"OBJECT_NAME": "FENGYUN 1C DEB", "OBJECT_ID": "1999-025BNH", "EPOCH": "2025-12-24T01:45:49.783104", "MEAN_MOTION": 14.02351369, "ECCENTRICITY": 0.0103496, "INCLINATION": 98.9438, "RA_OF_ASC_NODE": 41.2001, "ARG_OF_PERICENTER": 321.1011, "MEAN_ANOMALY": 38.2739, "EPHEMERIS_TYPE": 0, "CLASSIFICATION_TYPE": "U", "NORAD_CAT_ID": 31275, "ELEMENT_SET_NO": 999, "REV_AT_EPOCH": 95645, "BSTAR": 0.00084641644, "MEAN_MOTION_DOT": 1.317e-05, "MEAN_MOTION_DDOT": 0}, "tle": {"line1": "1 31275U 99025BNH 25358.07349286  .00001317  00000+0  84642-3 0  9993", "line2": "2 31275  98.9438  41.2001 0103496 321.1011  38.2739 14.02351369956456"}}, "geometry": {"type": "Point", "coordinates": [-179.52004480732538, -76.95110168645645]}}, {"type": "Feature", "properties": {"norad_id": 31279, "name": "FENGYUN 1C DEB", "group": "fengyun-1c-debris", "lat": 40.201893492798455, "lon": -164.6119407840449, "alt_km": 747.496151121044, "timestamp": "2025-12-26T04:40:06.068125+00:00", "meta": {"OBJECT_NAME": "FENGYUN 1C DEB", "OBJECT_ID": "1999-025BNM", "EPOCH": "2025-12-25T06:08:02.060160", "MEAN_MOTION": 14.2633542, "ECCENTRICITY": 0.0074243, "INCLINATION": 98.5169, "RA_OF_ASC_NODE": 7.1994, "ARG_OF_PERICENTER": 141.2243, "MEAN_ANOMALY": 219.4299, "EPHEMERIS_TYPE": 0, "CLASSIFICATION_TYPE": "U", "NORAD_CAT_ID": 31279, "ELEMENT_SET_NO": 999, "REV_AT_EPOCH": 97407, "BSTAR": 0.00044407, "MEAN_MOTION_DOT": 1.056e-05, "MEAN_MOTION_DDOT": 0}, "tle": {"line1": "1 31279U 99025BNM 25359.25557940  .00001056  00000+0  44407-3 0  9991", "line2": "2 31279  98.5169   7.1994 0074243 141.2243 219.4299 14.26335420974072"}}, "geometry": {"type": "Point", "coordinates": [-164.6119407840449, 40.201893492798455]}}, {"type": "Feature", "properties": {"norad_id": 31281, "name": "FENGYUN 1C DEB", "group": "fengyun-1c-debris", "lat": -1.9347215734318568, "lon": -43.52559532876564, "alt_km": 569.8872651487782, "timestamp": "2025-12-26T04:40:06.068135+00:00", "meta": {"OBJECT_NAME": "FENGYUN 1C DEB", "OBJECT_ID": "1999-025BNP", "EPOCH": "2025-12-25T19:58:06.115872", "MEAN_MOTION": 15.18079619, "ECCENTRICITY": 0.01121747, "INCLINATION": 98.3853, "RA_OF_ASC_NODE": 136.3584, "ARG_OF_PERICENTER": 47.2531, "MEAN_ANOMALY": 313.8073, "EPHEMERIS_TYPE": 0, "CLASSIFICATION_TYPE": "U", "NORAD_CAT_ID": 31281, "ELEMENT_SET_NO": 999, "REV_AT_EPOCH": 99930, "BSTAR": 0.0010808671, "MEAN_MOTION_DOT": 0.00025968, "MEAN_MOTION_DDOT": 0}, "tle": {"line1": "1 31281U 99025BNP 25359.83201523  .00025968  00000+0  10809-2 0  9997", "line2": "2 31281  98.3853 136.3584 0112174  47.2531 313.8073 15.18079619999303"}}, "geometry": {"type": "Point", "coordinates": [-43.52559532876564, -1.9347215734318568]}}, {"type": "Feature", "properties": {"norad_id": 31282, "name": "FENGYUN 1C DEB", "group": "fengyun-1c-debris", "lat": -23.75809584937115, "lon": 94.47395097687176, "alt_km": 685.3075996188281, "timestamp": "2025-12-26T04:40:06.068145+00:00", "meta": {"OBJECT_NAME": "FENGYUN 1C DEB", "OBJECT_ID": "1999-025BNQ", "EPOCH": "2025-12-25T12:44:35.954016", "MEAN_MOTION": 14.43490809, "ECCENTRICITY": 0.0126915, "INCLINATION": 99.2176, "RA_OF_ASC_NODE": 277.855, "ARG_OF_PERICENTER": 248.5077, "MEAN_ANOMALY": 110.2539, "EPHEMERIS_TYPE": 0, "CLASSIFICATION_TYPE": "U", "NORAD_CAT_ID": 31282, "ELEMENT_SET_NO": 999, "REV_AT_EPOCH": 97305, "BSTAR": 0.000217, "MEAN_MOTION_DOT": 7.51e-06, "MEAN_MOTION_DDOT": 0}, "tle": {"line1": "1 31282U 99025BNQ 25359.53097169  .00000751  00000+0  21700-3 0  9990", "line2": "2 31282  99.2176 277.8550 0126915 248.5077 110.2539 14.43490809973050"}}, "geometry": {"type": "Point", "coordinates": [94.47395097687176, -23.75809584937115]}}, {"type": "Feature", "properties": {"norad_id": 31284, "name": "FENGYUN 1C DEB", "group": "fengyun-1c-debris", "lat": 79.14913923713976, "lon": 31.964902744605055, "alt_km": 844.849468105188, "timestamp": "2025-12-26T04:40:06.068155+00:00", "meta": {"OBJECT_NAME": "FENGYUN 1C DEB", "OBJECT_ID": "1999-025BNS", "EPOCH": "2025-12-23T12:42:57.818304", "MEAN_MOTION": 13.97914234, "ECCENTRICITY": 0.01423046, "INCLINATION": 99.7207, "RA_OF_ASC_NODE": 92.5583, "ARG_OF_PERICENTER": 29.6928, "MEAN_ANOMALY": 331.2216, "EPHEMERIS_TYPE": 0, "CLASSIFICATION_TYPE": "U", "NORAD_CAT_ID": 31284, "ELEMENT_SET_NO": 999, "REV_AT_EPOCH": 95313, "BSTAR": 0.000450329, "MEAN_MOTION_DOT": 6.47e-06, "MEAN_MOTION_DDOT": 0}, "tle": {"line1": "1 31284U 99025BNS 25357.52983586  .00000647  00000+0  45033-3 0  9995", "line2": "2 31284  99.7207  92.5583 0142304  29.6928 331.2216 13.97914234953138"}}, "geometry": {"type": "Point", "coordinates": [31.964902744605055, 79.14913923713976]}}, {"type": "Feature", "properties": {"norad_id": 31285, "name": "FENGYUN 1C DEB", "group": "fengyun-1c-debris", "lat": -11.526831339409659, "lon": -18.000521847830328, "alt_km": 943.3175908713883, "timestamp": "2025-12-26T04:40:06.068187+00:00", "meta": {"OBJECT_NAME": "FENGYUN 1C DEB", "OBJECT_ID": "1999-025BNT", "EPOCH": "2025-12-25T22:07:31.098144", "MEAN_MOTION": 14.26051224, "ECCENTRICITY": 0.02004049, "INCLINATION": 98.5208, "RA_OF_ASC_NODE": 339.9821, "ARG_OF_PERICENTER": 148.2713, "MEAN_ANOMALY": 242.2121, "EPHEMERIS_TYPE": 0, "CLASSIFICATION_TYPE": "U", "NORAD_CAT_ID": 31285, "ELEMENT_SET_NO": 999, "REV_AT_EPOCH": 97487, "BSTAR": 0.00014545395, "MEAN_MOTION_DOT": 3.84e-06, "MEAN_MOTION_DDOT": 0}, "tle": {"line1": "1 31285U 99025BNT 25359.92188771  .00000384  00000+0  14545-3 0  9997", "line2": "2 31285  98.5208 339.9821 0200404 148.2713 242.2121 14.26051224974870"}}, "geometry": {"type": "Point", "coordinates": [-18.000521847830328, -11.526831339409659]}}]}